[{"OBJECT_NAME":"STARLINK-35315","OBJECT_ID":"2025-265AD","EPOCH":"2026-03-08T23:44:14.252640","MEAN_MOTION":15.27594453,"ECCENTRICITY":0.00023914,"INCLINATION":43.0051,"RA_OF_ASC_NODE":282.1148,"ARG_OF_PERICENTER":271.0191,"MEAN_ANOMALY":89.0386,"EPHEMERIS_TYPE":0,"CLASSIFICATION_TYPE":"U","NORAD_CAT_ID":66543,"ELEMENT_SET_NO":999,"REV_AT_EPOCH":1700,"BSTAR":0.0010483897,"MEAN_MOTION_DOT":0.00028713,"MEAN_MOTION_DDOT":0},{"OBJECT_NAME":"OBJECT BE","OBJECT_ID":"2025-313BE","EPOCH":"2026-03-09T16:43:59.380320","MEAN_MOTION":15.29801687,"ECCENTRICITY":0.00072083,"INCLINATION":97.3989,"RA_OF_ASC_NODE":145.3568,"ARG_OF_PERICENTER":335.3714,"MEAN_ANOMALY":24.7181,"EPHEMERIS_TYPE":0,"CLASSIFICATION_TYPE":"U","NORAD_CAT_ID":67482,"ELEMENT_SET_NO":999,"REV_AT_EPOCH":797,"BSTAR":0.0026504328,"MEAN_MOTION_DOT":0.00077178,"MEAN_MOTION_DDOT":0}]
